[Satellite]
VERSION=1.1
NAME=CZ-4B R/B
NICKNAME=CZ-4B R/B
TLE1=1 44707U 19072E   19317.50613815  .00110375  58625-5  28712-3 0  9992
TLE2=2 44707  97.5917  31.2056 0188405 349.7099  10.0329 15.71472823  1620
STATUS=0
